CELESTIS-02             
1 25160U 98007D   23048.89963709  .00000331  00000+0  20518-3 0  9991
2 25160 107.9945  41.0528 0061088  49.0390  15.7613 14.21710147297749
CELESTIS-03             
1 26034U 99070C   23049.42086395  .00055956  00000+0  17564-2 0  9999
2 26034  98.2933  86.6614 0007356  18.4458 341.7047 15.32805021258540
